0 SL-8 R/B
1 21797U 91081B   13282.30323353  .00000088  00000-0  73072-4 0  3402
2 21797 082.9560 342.2898 0036817 260.6530 167.1131 13.77225686 98993
0 SL-8 R/B
1 21797U 91081B   13287.15976572  .00000124  00000-0  10937-3 0  3420
2 21797 082.9549 338.6851 0036983 246.6208 126.2905 13.77226193 99662
0 SL-8 R/B
1 21797U 91081B   13289.50042823  .00000118  00000-0  10311-3 0  3434
2 21797 082.9544 336.9475 0037098 239.9211 211.4741 13.77226975 99985
0 SL-8 R/B
1 21797U 91081B   13292.18537390  .00000100  00000-0  85051-4 0  3446
2 21797 082.9541 334.9540 0037226 232.1981 203.6839 13.77227710100358
0 SL-8 R/B
1 21797U 91081B   13294.51660818  .00000110  00000-0  95152-4 0  3452
2 21797 082.9541 333.2230 0037382 225.6006 242.0582 13.77228186100679
